{"fetched_at":"2026-06-14T13:59:49Z","count":9400,"tles":[{"name":"GREENCUBE (IO-117)","line1":"1 53109U 22080E   26152.46502029 -.00000003  00000+0  00000+0 0  9996","line2":"2 53109  70.1435 303.7143 0008869 293.3663  66.6064  6.42583280 91055","category":"Other"},{"name":"SNUGLITE-II","line1":"1 52899U 22065F   26164.34119332  .00000873  00000+0  17439-3 0  9997","line2":"2 52899  98.2196 309.1786 0008236  44.0050 316.1807 14.64341247210438","category":"Other"},{"name":"OMNI-L2","line1":"1 52771U 22057AR  26164.61009969  .00001317  00000+0  17459-3 0  9997","line2":"2 52771  97.4717 227.2089 0006104 350.0196  10.0896 14.81362327219861","category":"Other"},{"name":"MIMAN","line1":"1 52900U 22065G   26164.35213168  .00000465  00000+0  10258-3 0  9992","line2":"2 52900  98.2255 306.8539 0008443  45.7094 314.4799 14.61840117209888","category":"Other"},{"name":"STEP CUBE LAB-II","line1":"1 52897U 22065D   26164.64857998  .00000927  00000+0  18897-3 0  9994","line2":"2 52897  98.2216 308.5612 0009540  42.6007 317.5933 14.63299182210989","category":"Other"},{"name":"DAQI-1","line1":"1 52257U 22039A   26164.64457344  .00000119  00000+0  35978-4 0  9999","line2":"2 52257  98.1479 103.5695 0002263 271.2155  88.8784 14.57675041221420","category":"Other"},{"name":"RANDEV","line1":"1 52898U 22065E   26164.58223091  .00000881  00000+0  17850-3 0  9996","line2":"2 52898  98.2201 308.8452 0008892  43.3900 316.8001 14.63685869210729","category":"Other"},{"name":"MERIDIAN 10","line1":"1 52145U 22030A   26163.98247039  .00000221  00000+0  00000+0 0  9997","line2":"2 52145  62.6764 141.2538 6782591 272.8566  17.6612  2.00614112 30944","category":"Other"},{"name":"JILIN-1 GAOFEN 3D27","line1":"1 52444U 22048B   26164.59712683  .00123920  00000+0  84234-3 0  9995","line2":"2 52444  97.5709 278.2090 0001378  55.9747 304.1648 15.74555695228912","category":"Other"},{"name":"STARLINK-4362","line1":"1 53043U 22077A   26164.47750056 -.00001743  00000+0 -11681-3 0  9992","line2":"2 53043  97.3663 343.5945 0002097  98.3778 261.7687 15.05655164215322","category":"Starlink"},{"name":"GAOFEN-3 03","line1":"1 52200U 22035A   26164.62201549 -.00000014  00000+0  90523-5 0  9998","line2":"2 52200  98.4060 173.2538 0001201  99.0989 261.0337 14.42214492220330","category":"Other"},{"name":"LARES-2","line1":"1 53105U 22080A   26164.25617662 -.00000017  00000+0  00000+0 0  9997","line2":"2 53105  70.1627 306.6773 0005398 335.8266  24.1972  6.38965105 91412","category":"Other"},{"name":"BRO-6","line1":"1 52422U 22047AE  26164.58804031  .00035038  00000+0  61771-3 0  9991","line2":"2 52422  97.3405 255.5743 0005341  90.9767 269.2097 15.50320984230598","category":"Other"},{"name":"JILIN-1 GAOFEN 3D28","line1":"1 52445U 22048C   26164.60323956  .00142751  00000+0  85250-3 0  9991","line2":"2 52445  97.5648 278.3512 0000768 158.3252 201.8047 15.77475156228963","category":"Other"},{"name":"2022-023F","line1":"1 51951U 22023F   26164.65304597  .00014754  00000+0  58753-3 0  9999","line2":"2 51951  63.4455 285.4950 0129546 342.5324  17.1351 15.18002588237179","category":"Other"},{"name":"OMNI-L1","line1":"1 52157U 22033A   26164.19732088  .00001839  00000+0  23415-3 0  9995","line2":"2 52157  97.8396 243.4520 0003943 306.0062  54.0785 14.82735278226860","category":"Other"},{"name":"LUDI TANCE 1-01A (L-SA*)","line1":"1 51284U 22007A   26164.61810935  .00000582  00000+0  68611-4 0  9993","line2":"2 51284  97.8098 172.0887 0001609  90.4979 269.6422 14.88418178237946","category":"Other"},{"name":"TECMS","line1":"1 53346U 22090A   26164.60733333  .00003989  00000+0  18089-3 0  9998","line2":"2 53346  97.3144 232.8171 0003075 186.5588 173.5608 15.21384406214260","category":"Other"},{"name":"STARLINK-4410","line1":"1 53204U 22084R   26164.66668981  .00077316  00000+0  26610-2 0  9999","line2":"2 53204  97.6011 225.6720 0000920  95.6368 181.1893 15.29750276  5822","category":"Starlink"},{"name":"LUDI TANCE 1-01B (L-SA*)","line1":"1 51822U 22018A   26164.65171137  .00000597  00000+0  70228-4 0  9994","line2":"2 51822  97.8102 172.1182 0001589  91.3505 268.7894 14.88414328233189","category":"Other"}]}