OBJECT_NAME,OBJECT_ID,EPOCH,MEAN_MOTION,ECCENTRICITY,INCLINATION,RA_OF_ASC_NODE,ARG_OF_PERICENTER,MEAN_ANOMALY,EPHEMERIS_TYPE,CLASSIFICATION_TYPE,NORAD_CAT_ID,ELEMENT_SET_NO,REV_AT_EPOCH,BSTAR,MEAN_MOTION_DOT,MEAN_MOTION_DDOT
LUDI TANCE 1-01A (L-SAR 01A),2022-007A,2026-06-13T14:50:04.647840,14.88418178,.00016095,97.8098,172.0887,90.4979,269.6422,0,U,51284,999,23794,.68611062E-4,.582E-5,0
LUDI TANCE 1-01B (L-SAR 01B),2022-018A,2026-06-13T15:38:27.862368,14.88414328,.00015897,97.8102,172.1182,91.3505,268.7894,0,U,51822,999,23318,.70228226E-4,.597E-5,0
2022-023F,2022-023F,2026-06-13T15:40:23.171808,15.18002588,.01295464,63.4455,285.4950,342.5324,17.1351,0,U,51951,999,23717,.58752597E-3,.14754E-3,0
MERIDIAN 10,2022-030A,2026-06-12T23:34:45.441696,2.00614112,.67825916,62.6764,141.2538,272.8566,17.6612,0,U,52145,999,3094,0,.221E-5,0
OMNI-L1,2022-033A,2026-06-13T04:44:08.524032,14.82735278,.00039433,97.8396,243.4520,306.0062,54.0785,0,U,52157,999,22686,.23414951E-3,.1839E-4,0
GAOFEN-3 03,2022-035A,2026-06-13T14:55:42.138336,14.42214492,.00012019,98.4060,173.2538,99.0989,261.0337,0,U,52200,999,22033,.9052275E-5,-.14E-6,0
DAQI-1,2022-039A,2026-06-13T15:28:11.145216,14.57675041,.00022638,98.1479,103.5695,271.2155,88.8784,0,U,52257,999,22142,.35977906E-4,.119E-5,0
BRO-6,2022-047AE,2026-06-13T14:06:46.682784,15.50320984,.0005341,97.3405,255.5743,90.9767,269.2097,0,U,52422,999,23059,.61770949E-3,.35038E-3,0
JILIN-1 GAOFEN 3D27,2022-048B,2026-06-13T14:19:51.758112,15.74555695,.00013782,97.5709,278.2090,55.9747,304.1648,0,U,52444,999,22891,.84234342E-3,.12392E-2,0
JILIN-1 GAOFEN 3D28,2022-048C,2026-06-13T14:28:39.897984,15.77475156,.00007681,97.5648,278.3512,158.3252,201.8047,0,U,52445,999,22896,.85249677E-3,.142751E-2,0
OMNI-L2,2022-057AR,2026-06-13T14:38:32.613216,14.81362327,.00061047,97.4717,227.2089,350.0196,10.0896,0,U,52771,999,21986,.17459189E-3,.1317E-4,0
STEP CUBE LAB-II,2022-065D,2026-06-13T15:33:57.310272,14.63299182,.00095403,98.2216,308.5612,42.6007,317.5933,0,U,52897,999,21098,.18896738E-3,.927E-5,0
RANDEV,2022-065E,2026-06-13T13:58:24.750624,14.63685869,.00088925,98.2201,308.8452,43.3900,316.8001,0,U,52898,999,21072,.17850285E-3,.881E-5,0
SNUGLITE-II,2022-065F,2026-06-13T08:11:19.102848,14.64341247,.00082365,98.2196,309.1786,44.0050,316.1807,0,U,52899,999,21043,.17438693E-3,.873E-5,0
MIMAN,2022-065G,2026-06-13T08:27:04.177152,14.61840117,.00084434,98.2255,306.8539,45.7094,314.4799,0,U,52900,999,20988,.10258277E-3,.465E-5,0
STARLINK-4362,2022-077A,2026-06-13T11:27:36.048384,15.05655164,.00020977,97.3663,343.5945,98.3778,261.7687,0,U,53043,999,21532,-.11680644E-3,-.1743E-4,0
LARES-2,2022-080A,2026-06-13T06:08:53.659968,6.38965105,.0005398,70.1627,306.6773,335.8266,24.1972,0,U,53105,999,9141,0,-.17E-6,0
GREENCUBE (IO-117),2022-080E,2026-06-01T11:09:37.753056,6.42583280,.00088692,70.1435,303.7143,293.3663,66.6064,0,U,53109,999,9105,0,-.3E-7,0
STARLINK-4410,2022-084R,2026-06-13T16:00:01.999584,15.29750276,.00009204,97.6011,225.6720,95.6368,181.1893,0,U,53204,999,582,.26610045E-2,.77316E-3,0
TECMS,2022-090A,2026-06-13T14:34:33.599712,15.21384406,.00030757,97.3144,232.8171,186.5588,173.5608,0,U,53346,999,21426,.18089108E-3,.3989E-4,0
